IRIDIUM 63              
1 25286U 98021B   25183.43403453  .00000243  00000+0  75867-4 0  9993
2 25286  86.3967  75.7362 0002045  88.1656 271.9775 14.36554597426031
IRIDIUM 69              
1 25319U 98026A   25183.46934621  .00000376  00000+0  11083-3 0  9990
2 25319  86.3966  88.9661 0002603  26.6579 333.4753 14.40979868425267
IRIDIUM 71              
1 25320U 98026B   25183.26588022  .00000313  00000+0  90841-4 0  9991
2 25320  86.3963  83.7397 0003945  61.1918 298.9678 14.41168151425768
IRIDIUM 73              
1 25344U 98032C   25183.57066849  .00000370  00000+0  87059-4 0  9996
2 25344  86.4402  40.2816 0001716  75.2236 284.9160 14.51727642432799
IRIDIUM 82              
1 25467U 98051A   25183.50194449  .00014859  00000+0  42022-3 0  9991
2 25467  86.3664 102.2050 0081266 237.0915 122.2499 15.32844580426303
